start=new Date('2022-07-14T00:00:00.000Z').valueOf();
sats=[{"CENTER_NAME":"EARTH","RCS_SIZE":"LARGE","RA_OF_ASC_NODE":"62.0690","INCLINATION":"53.0527","MEAN_MOTION":"15.42004277","MEAN_MOTION_DDOT":"0.0000000000000","TLE_LINE2":"2 47872  53.0527  62.0690 0007987 277.0945  82.9151 15.42004277 76168","MEAN_ELEMENT_THEORY":"SGP4","EPHEMERIS_TYPE":"0","REV_AT_EPOCH":"7616","OBJECT_ID":"2021-021N","NORAD_CAT_ID":"47872","FILE":"3513188","MEAN_MOTION_DOT":"-0.00018659","OBJECT_TYPE":"PAYLOAD","BSTAR":"-0.00042191000000","EPOCH":"2022-07-13T20:09:30.917952","SEMIMAJOR_AXIS":"6818.332","MEAN_ANOMALY":"82.9151","COUNTRY_CODE":"US","ECCENTRICITY":"0.00079870","PERIAPSIS":"434.751","APOAPSIS":"445.642","REF_FRAME":"TEME","SITE":"AFETR","TIME_SYSTEM":"UTC","ARG_OF_PERICENTER":"277.0945","OBJECT_NAME":"STARLINK-2328","LAUNCH_DATE":"2021-03-14","ELEMENT_SET_NO":"999","GP_ID":"208065349","CLASSIFICATION_TYPE":"U","DECAY_DATE":null,"TLE_LINE1":"1 47872U 21021N   22194.83994118 -.00018659  00000-0 -42191-3 0  9996","PERIOD":"93.385"},{"ARG_OF_PERICENTER":"70.2941","TIME_SYSTEM":"UTC","SITE":"AFETR","OBJECT_NAME":"STARLINK-2329","LAUNCH_DATE":"2021-03-14","ELEMENT_SET_NO":"999","GP_ID":"208034502","DECAY_DATE":null,"TLE_LINE1":"1 47873U 21021P   22194.32092018  .00007698  00000-0  53478-3 0  9998","PERIOD":"95.591","CLASSIFICATION_TYPE":"U","APOAPSIS":"548.501","REF_FRAME":"TEME","FILE":"3512925","MEAN_MOTION_DOT":"0.00007698","NORAD_CAT_ID":"47873","TLE_LINE2":"2 47873  53.0527 136.3271 0001970  70.2941 289.8260 15.06425215 75059","MEAN_ELEMENT_THEORY":"SGP4","REV_AT_EPOCH":"7505","OBJECT_ID":"2021-021P","EPHEMERIS_TYPE":"0","BSTAR":"0.00053478000000","SEMIMAJOR_AXIS":"6925.271","EPOCH":"2022-07-13T07:42:07.503552","OBJECT_TYPE":"PAYLOAD","MEAN_ANOMALY":"289.8260","ECCENTRICITY":"0.00019700","COUNTRY_CODE":"US","PERIAPSIS":"545.772","RCS_SIZE":"LARGE","CENTER_NAME":"EARTH","RA_OF_ASC_NODE":"136.3271","MEAN_MOTION":"15.06425215","MEAN_MOTION_DDOT":"0.0000000000000","INCLINATION":"53.0527"},{"OBJECT_ID":"2021-021Q","REV_AT_EPOCH":"7576","EPHEMERIS_TYPE":"0","MEAN_ELEMENT_THEORY":"SGP4","TLE_LINE2":"2 47874  53.0556  89.2035 0001644  60.4318 299.6835 15.06397130 75762","NORAD_CAT_ID":"47874","FILE":"3513188","MEAN_MOTION_DOT":"-0.00001766","OBJECT_TYPE":"PAYLOAD","SEMIMAJOR_AXIS":"6925.357","EPOCH":"2022-07-13T19:04:50.309472","BSTAR":"-0.00009970300000","MEAN_ANOMALY":"299.6835","PERIAPSIS":"546.084","ECCENTRICITY":"0.00016440","COUNTRY_CODE":"US","CENTER_NAME":"EARTH","RCS_SIZE":"LARGE","RA_OF_ASC_NODE":"89.2035","INCLINATION":"53.0556","MEAN_MOTION_DDOT":"0.0000000000000","MEAN_MOTION":"15.06397130","SITE":"AFETR","ARG_OF_PERICENTER":"60.4318","TIME_SYSTEM":"UTC","LAUNCH_DATE":"2021-03-14","ELEMENT_SET_NO":"999","OBJECT_NAME":"STARLINK-2330","GP_ID":"208066344","CLASSIFICATION_TYPE":"U","DECAY_DATE":null,"TLE_LINE1":"1 47874U 21021Q   22194.79502673 -.00001766  00000-0 -99703-4 0  9997","PERIOD":"95.592","APOAPSIS":"548.361","REF_FRAME":"TEME"},{"RA_OF_ASC_NODE":"146.0729","MEAN_MOTION":"15.06414726","MEAN_MOTION_DDOT":"0.0000000000000","INCLINATION":"53.0540","CENTER_NAME":"EARTH","RCS_SIZE":"LARGE","MEAN_ANOMALY":"263.4670","COUNTRY_CODE":"US","ECCENTRICITY":"0.00016050","PERIAPSIS":"546.057","MEAN_MOTION_DOT":"0.00004330","FILE":"3512925","NORAD_CAT_ID":"47875","TLE_LINE2":"2 47875  53.0540 146.0729 0001605  96.6502 263.4670 15.06414726 74981","MEAN_ELEMENT_THEORY":"SGP4","OBJECT_ID":"2021-021R","REV_AT_EPOCH":"7498","EPHEMERIS_TYPE":"0","BSTAR":"0.00030926000000","EPOCH":"2022-07-13T09:05:43.217952","SEMIMAJOR_AXIS":"6925.303","OBJECT_TYPE":"PAYLOAD","REF_FRAME":"TEME","APOAPSIS":"548.280","GP_ID":"208035998","DECAY_DATE":null,"TLE_LINE1":"1 47875U 21021R   22194.37897243  .00004330  00000-0  30926-3 0  9991","PERIOD":"95.591","CLASSIFICATION_TYPE":"U","ARG_OF_PERICENTER":"96.6502","TIME_SYSTEM":"UTC","SITE":"AFETR","OBJECT_NAME":"STARLINK-2331","ELEMENT_SET_NO":"999","LAUNCH_DATE":"2021-03-14"},{"ELEMENT_SET_NO":"999","LAUNCH_DATE":"2021-03-14","OBJECT_NAME":"STARLINK-2332","ARG_OF_PERICENTER":"62.2709","TIME_SYSTEM":"UTC","SITE":"AFETR","TLE_LINE1":"1 47876U 21021S   22194.23521949 -.00001724  00000-0 -96789-4 0  9990","DECAY_DATE":null,"PERIOD":"95.591","CLASSIFICATION_TYPE":"U","GP_ID":"208034753","APOAPSIS":"549.122","REF_FRAME":"TEME","EPOCH":"2022-07-13T05:38:42.963936","SEMIMAJOR_AXIS":"6925.302","BSTAR":"-0.00009678900000","OBJECT_TYPE":"PAYLOAD","NORAD_CAT_ID":"47876","FILE":"3512925","MEAN_MOTION_DOT":"-0.00001724","OBJECT_ID":"2021-021S","REV_AT_EPOCH":"7491","EPHEMERIS_TYPE":"0","TLE_LINE2":"2 47876  53.0538 146.7161 0002823  62.2709 297.8566 15.06415195 74916","MEAN_ELEMENT_THEORY":"SGP4","PERIAPSIS":"545.212","COUNTRY_CODE":"US","ECCENTRICITY":"0.00028230","MEAN_ANOMALY":"297.8566","RCS_SIZE":"LARGE","CENTER_NAME":"EARTH","MEAN_MOTION_DDOT":"0.0000000000000","MEAN_MOTION":"15.06415195","INCLINATION":"53.0538","RA_OF_ASC_NODE":"146.7161"},{"RA_OF_ASC_NODE":"143.9712","INCLINATION":"53.0536","MEAN_MOTION_DDOT":"0.0000000000000","MEAN_MOTION":"15.06398059","RCS_SIZE":"LARGE","CENTER_NAME":"EARTH","MEAN_ANOMALY":"296.1510","PERIAPSIS":"546.002","ECCENTRICITY":"0.00017580","COUNTRY_CODE":"US","REV_AT_EPOCH":"7499","EPHEMERIS_TYPE":"0","OBJECT_ID":"2021-021T","TLE_LINE2":"2 47877  53.0536 143.9712 0001758  63.9660 296.1510 15.06398059 74994","MEAN_ELEMENT_THEORY":"SGP4","MEAN_MOTION_DOT":"0.00011006","FILE":"3513188","NORAD_CAT_ID":"47877","OBJECT_TYPE":"PAYLOAD","SEMIMAJOR_AXIS":"6925.355","EPOCH":"2022-07-13T20:19:49.935072","BSTAR":"0.00075666000000","REF_FRAME":"TEME","APOAPSIS":"548.437","GP_ID":"208066101","CLASSIFICATION_TYPE":"U","TLE_LINE1":"1 47877U 21021T   22194.84710573  .00011006  00000-0  75666-3 0  9993","PERIOD":"95.592","DECAY_DATE":null,"SITE":"AFETR","ARG_OF_PERICENTER":"63.9660","TIME_SYSTEM":"UTC","LAUNCH_DATE":"2021-03-14","ELEMENT_SET_NO":"999","OBJECT_NAME":"STARLINK-2333"},{"GP_ID":"208066843","TLE_LINE1":"1 47878U 21021U   22194.59277397  .00006963  00000-0  48554-3 0  9990","PERIOD":"95.590","DECAY_DATE":null,"CLASSIFICATION_TYPE":"U","ARG_OF_PERICENTER":"59.0686","TIME_SYSTEM":"UTC","SITE":"AFETR","ELEMENT_SET_NO":"999","LAUNCH_DATE":"2021-03-14","OBJECT_NAME":"STARLINK-2335","REF_FRAME":"TEME","APOAPSIS":"548.640","MEAN_ANOMALY":"301.0517","PERIAPSIS":"545.627","COUNTRY_CODE":"US","ECCENTRICITY":"0.00021750","FILE":"3513188","MEAN_MOTION_DOT":"0.00006963","NORAD_CAT_ID":"47878","REV_AT_EPOCH":"7475","OBJECT_ID":"2021-021U","EPHEMERIS_TYPE":"0","TLE_LINE2":"2 47878  53.0538 145.1111 0002175  59.0686 301.0517 15.06426169 74753","MEAN_ELEMENT_THEORY":"SGP4","SEMIMAJOR_AXIS":"6925.268","EPOCH":"2022-07-13T14:13:35.671008","BSTAR":"0.00048554000000","OBJECT_TYPE":"PAYLOAD","RA_OF_ASC_NODE":"145.1111","MEAN_MOTION_DDOT":"0.0000000000000","MEAN_MOTION":"15.06426169","INCLINATION":"53.0538","CENTER_NAME":"EARTH","RCS_SIZE":"LARGE"},{"ARG_OF_PERICENTER":"63.4348","TIME_SYSTEM":"UTC","SITE":"AFETR","OBJECT_NAME":"STARLINK-2336","LAUNCH_DATE":"2021-03-14","ELEMENT_SET_NO":"999","GP_ID":"208035498","PERIOD":"95.591","TLE_LINE1":"1 47879U 21021V   22194.32415363  .00002045  00000-0  15611-3 0  9994","DECAY_DATE":null,"CLASSIFICATION_TYPE":"U","APOAPSIS":"548.599","REF_FRAME":"TEME","FILE":"3512925","MEAN_MOTION_DOT":"0.00002045","NORAD_CAT_ID":"47879","MEAN_ELEMENT_THEORY":"SGP4","TLE_LINE2":"2 47879  53.0536 161.3229 0002050  63.4348 296.6850 15.06411148 74882","REV_AT_EPOCH":"7488","EPHEMERIS_TYPE":"0","OBJECT_ID":"2021-021V","BSTAR":"0.00015611000000","SEMIMAJOR_AXIS":"6925.314","EPOCH":"2022-07-13T07:46:46.873632","OBJECT_TYPE":"PAYLOAD","MEAN_ANOMALY":"296.6850","ECCENTRICITY":"0.00020500","COUNTRY_CODE":"US","PERIAPSIS":"545.760","CENTER_NAME":"EARTH","RCS_SIZE":"LARGE","RA_OF_ASC_NODE":"161.3229","MEAN_MOTION":"15.06411148","MEAN_MOTION_DDOT":"0.0000000000000","INCLINATION":"53.0536"},{"RCS_SIZE":"LARGE","CENTER_NAME":"EARTH","INCLINATION":"53.0553","MEAN_MOTION_DDOT":"0.0000000000000","MEAN_MOTION":"15.06400315","RA_OF_ASC_NODE":"154.9469","OBJECT_TYPE":"PAYLOAD","SEMIMAJOR_AXIS":"6925.348","EPOCH":"2022-07-13T15:05:19.514112","BSTAR":"0.00011633000000","REV_AT_EPOCH":"7482","EPHEMERIS_TYPE":"0","OBJECT_ID":"2021-021W","TLE_LINE2":"2 47880  53.0553 154.9469 0002555  63.0080 297.1170 15.06400315 74825","MEAN_ELEMENT_THEORY":"SGP4","NORAD_CAT_ID":"47880","FILE":"3513188","MEAN_MOTION_DOT":"0.00001451","PERIAPSIS":"545.443","COUNTRY_CODE":"US","ECCENTRICITY":"0.00025550","MEAN_ANOMALY":"297.1170","APOAPSIS":"548.982","REF_FRAME":"TEME","ELEMENT_SET_NO":"999","LAUNCH_DATE":"2021-03-14","OBJECT_NAME":"STARLINK-2337","SITE":"AFETR","TIME_SYSTEM":"UTC","ARG_OF_PERICENTER":"63.0080","CLASSIFICATION_TYPE":"U","PERIOD":"95.592","TLE_LINE1":"1 47880U 21021W   22194.62869808  .00001451  00000-0  11633-3 0  9996","DECAY_DATE":null,"GP_ID":"208065350"},{"CENTER_NAME":"EARTH","RCS_SIZE":"LARGE","RA_OF_ASC_NODE":"155.1293","MEAN_MOTION_DDOT":"0.0000000000000","MEAN_MOTION":"15.06398461","INCLINATION":"53.0521","FILE":"3513188","MEAN_MOTION_DOT":"-0.00000443","NORAD_CAT_ID":"47881","OBJECT_ID":"2021-021X","REV_AT_EPOCH":"7478","EPHEMERIS_TYPE":"0","TLE_LINE2":"2 47881  53.0521 155.1293 0001560  66.9099 293.2054 15.06398461 74787","MEAN_ELEMENT_THEORY":"SGP4","SEMIMAJOR_AXIS":"6925.353","EPOCH":"2022-07-13T14:06:56.978208","BSTAR":"-0.00001086000000","OBJECT_TYPE":"PAYLOAD","MEAN_ANOMALY":"293.2054","PERIAPSIS":"546.138","ECCENTRICITY":"0.00015600","COUNTRY_CODE":"US","APOAPSIS":"548.299","REF_FRAME":"TEME","TIME_SYSTEM":"UTC","ARG_OF_PERICENTER":"66.9099","SITE":"AFETR","LAUNCH_DATE":"2021-03-14","ELEMENT_SET_NO":"999","OBJECT_NAME":"STARLINK-2339","GP_ID":"208066600","DECAY_DATE":null,"TLE_LINE1":"1 47881U 21021X   22194.58815947 -.00000443  00000-0 -10860-4 0  9991","PERIOD":"95.592","CLASSIFICATION_TYPE":"U"}];
